1 39533U 14008A   20001.90572540  .00000008  00000-0  00000+0 0  9998
2 39533  53.8232 245.6528 0042194 195.2202 164.7269  2.00559197 42932
1 39533U 14008A   20003.90007543  .00000029  00000-0  00000+0 0  9999
2 39533  53.8226 245.5707 0042221 195.1922 164.7556  2.00559306 42977
1 39533U 14008A   20004.89725302  .00000042  00000-0  00000+0 0  9993
2 39533  53.8222 245.5296 0042232 195.1785 164.7718  2.00559349 42994
1 39533U 14008A   20008.38737970  .00000076  00000-0  00000+0 0  9992
2 39533  53.8209 245.3859 0042272 195.1451 164.8190  2.00559470 43065
1 39533U 14008A   20009.38455632  .00000078  00000-0  00000+0 0  9997
2 39533  53.8205 245.3448 0042288 195.1228 164.8438  2.00559499 43082
1 39533U 14008A   20009.38455632  .00000078  00000-0  00000-0 0  9998
2 39533  53.8205 245.3448 0042288 195.1228 164.8438  2.00559499 42553
1 39533U 14008A   20011.37890153  .00000070  00000-0  00000+0 0  9992
2 39533  53.8198 245.2627 0042299 195.0351 164.9306  2.00559540 43126
1 39533U 14008A   20011.87748546  .00000066  00000-0  00000+0 0  9990
2 39533  53.8196 245.2421 0042307 195.0121 164.9519  2.00559564 43134
1 39533U 14008A   20012.87465086  .00000057  00000-0  00000+0 0  9996
2 39533  53.8193 245.2010 0042318 195.0014 164.9576  2.00559597 43159
1 39533U 14008A   20013.87181448  .00000049  00000-0  00000+0 0  9995
2 39533  53.8190 245.1599 0042329 194.9870 164.9658  2.00559637 43175
1 39533U 14008A   20014.86897761  .00000042  00000-0  00000-0 0  9991
2 39533  53.8187 245.1188 0042347 194.9794 164.9674  2.00559696 42666
1 39533U 14008A   20017.36189582  .00000044  00000-0  00000+0 0  9995
2 39533  53.8178 245.0161 0042377 194.9477 164.9915  2.00559813 43241
1 39533U 14008A   20018.35906793  .00000052  00000-0  00000-0 0  9996
2 39533  53.8175 244.9750 0042401 194.9332 165.0067  2.00559889 42734
1 39533U 14008A   20020.35341654  .00000065  00000-0  00000+0 0  9991
2 39533  53.8167 244.8929 0042443 194.9067 165.0385  2.00560019 43307
1 39533U 14008A   20021.84917572  .00000067  00000-0  00000-0 0  9997
2 39533  53.8162 244.8313 0042470 194.9048 165.0433  2.00560110 42808
1 39533U 14008A   20025.33925940  .00000041  00000-0  00000+0 0  9994
2 39533  53.8151 244.6876 0042532 194.8775 165.0640  2.00560338 43402
1 39533U 14008A   20025.83784102  .00000037  00000-0  00000-0 0  9998
2 39533  53.8151 244.6670 0042545 194.8567 165.0826  2.00560388 42889
1 39533U 14008A   20027.33358409  .00000029  00000-0  00000-0 0  9993
2 39533  53.8146 244.6055 0042586 194.8372 165.0951  2.00560493 42919
1 39533U 14008A   20029.82649167  .00000038  00000-0  00000+0 0  9992
2 39533  53.8138 244.5029 0042649 194.8387 165.0849  2.00560627 43495
1 39533U 14008A   20031.82082537  .00000060  00000-0  00000-0 0  9993
2 39533  53.8133 244.4207 0042705 194.8091 165.1136  2.00560742 43007
1 39533U 14008A   20034.31374972  .00000087  00000-0  00000+0 0  9995
2 39533  53.8124 244.3181 0042754 194.7971 165.1308  2.00560821 43589
1 39533U 14008A   20034.31374972  .00000087  00000-0  00000-0 0  9996
2 39533  53.8124 244.3181 0042754 194.7971 165.1308  2.00560821 43051
1 39533U 14008A   20036.30808779  .00000096  00000-0  00000-0 0  9994
2 39533  53.8118 244.2359 0042812 194.7828 165.1489  2.00560888 43093
1 39533U 14008A   20038.80099457  .00000085  00000-0  00000+0 0  9993
2 39533  53.8110 244.1332 0042873 194.8049 165.1213  2.00560955 43672
1 39533U 14008A   20041.79246088  .00000056  00000-0  00000+0 0  9997
2 39533  53.8101 244.0100 0042938 194.8223 165.0829  2.00561073 43731
1 39533U 14008A   20042.78961630  .00000051  00000-0  00000-0 0  9990
2 39533  53.8099 243.9689 0042960 194.8250 165.0735  2.00561119 43223
1 39533U 14008A   20043.78677431  .00000050  00000-0  00000-0 0  9993
2 39533  53.8099 243.9278 0042985 194.8225 165.0713  2.00561171 43242
1 39533U 14008A   20044.78393515  .00000053  00000-0  00000+0 0  9994
2 39533  53.8094 243.8867 0043008 194.8382 165.0532  2.00561211 43795
1 39533U 14008A   20044.78393529  .00000053  00000-0  00000-0 0  9990
2 39533  53.8095 243.8867 0043012 194.8250 165.0664  2.00561224 43267
1 39533U 14008A   20046.27968174  .00000062  00000-0  00000-0 0  9990
2 39533  53.8092 243.8251 0043055 194.8412 165.0505  2.00561313 43294
1 39533U 14008A   20047.27684740  .00000068  00000-0  00000+0 0  9990
2 39533  53.8089 243.7840 0043094 194.8552 165.0380  2.00561394 43842
1 39533U 14008A   20050.76691704  .00000056  00000-0  00000+0 0  9993
2 39533  53.8079 243.6404 0043199 194.8878 165.0048  2.00561637 43912
1 39533U 14008A   20051.76407429  .00000045  00000-0  00000-0 0  9992
2 39533  53.8075 243.5993 0043229 194.8908 164.9982  2.00561707 43405
1 39533U 14008A   20054.25696088  .00000022  00000-0  00000-0 0  9995
2 39533  53.8069 243.4968 0043313 194.9072 164.9688  2.00561875 43450
1 39533U 14008A   20054.25696094  .00000022  00000-0  00000+0 0  9991
2 39533  53.8068 243.4967 0043306 194.9031 164.9729  2.00561860 43983
1 39533U 14008A   20055.75269257  .00000020  00000-0  00000-0 0  9993
2 39533  53.8063 243.4353 0043376 194.9207 164.9479  2.00561937 43481
1 39533U 14008A   20056.25127052  .00000021  00000-0  00000-0 0  9996
2 39533  53.8062 243.4148 0043406 194.9281 164.9386  2.00561996 43491
1 39533U 14008A   20056.25127061  .00000021  00000-0  00000-0 0  9996
2 39533  53.8062 243.4148 0043400 194.9229 164.9438  2.00561984 43492
1 39533U 14008A   20057.74700627  .00000032  00000-0  00000+0 0  9997
2 39533  53.8057 243.3532 0043450 194.9553 164.9076  2.00562052 44055
1 39533U 14008A   20058.74416582  .00000042  00000-0  00000-0 0  9994
2 39533  53.8054 243.3122 0043486 194.9717 164.8907  2.00562101 43548
1 39533U 14008A   20058.74416606  .00000042  00000-0  00000-0 0  9991
2 39533  53.8053 243.3122 0043485 194.9634 164.8990  2.00562115 43541
1 39533U 14008A   20059.74132745  .00000053  00000-0  00000-0 0  9993
2 39533  53.8050 243.2712 0043519 194.9779 164.8854  2.00562158 43568
1 39533U 14008A   20060.73848992  .00000063  00000-0  00000+0 0  9992
2 39533  53.8047 243.2302 0043540 194.9994 164.8658  2.00562184 44115
1 39533U 14008A   20060.73849011  .00000063  00000-0  00000-0 0  9996
2 39533  53.8048 243.2302 0043554 194.9925 164.8728  2.00562202 43584
1 39533U 14008A   20062.23423442  .00000073  00000-0  00000-0 0  9990
2 39533  53.8043 243.1686 0043591 195.0215 164.8473  2.00562234 43614
1 39533U 14008A   20063.23139631  .00000076  00000-0  00000+0 0  9997
2 39533  53.8040 243.1276 0043635 195.0366 164.8339  2.00562271 44165
1 39533U 14008A   20064.22855570  .00000075  00000-0  00000-0 0  9994
2 39533  53.8036 243.0866 0043671 195.0603 164.8105  2.00562301 43656
1 39533U 14008A   20065.22571187  .00000070  00000-0  00000-0 0  9999
2 39533  53.8033 243.0456 0043713 195.0896 164.7792  2.00562338 43672
1 39533U 14008A   20066.72144030  .00000056  00000-0  00000+0 0  9991
2 39533  53.8028 242.9840 0043750 195.1300 164.7321  2.00562371 44231
1 39533U 14008A   20067.71858941  .00000045  00000-0  00000-0 0  9993
2 39533  53.8024 242.9429 0043792 195.1495 164.7059  2.00562411 43727
1 39533U 14008A   20067.71858941  .00000045  00000-0  00000-0 0  9993
2 39533  53.8024 242.9429 0043792 195.1495 164.7059  2.00562411 44256
1 39533U 14008A   20071.20861275  .00000024  00000-0  00000+0 0  9992
2 39533  53.8013 242.7993 0043902 195.2316 164.6030  2.00562556 44320
1 39533U 14008A   20072.20576800  .00000027  00000-0  00000-0 0  9994
2 39533  53.8010 242.7583 0043946 195.2505 164.5826  2.00562622 43819
1 39533U 14008A   20073.70150568  .00000035  00000-0  00000+0 0  9997
2 39533  53.8005 242.6968 0043991 195.2945 164.5402  2.00562698 44372
1 39533U 14008A   20073.70150572  .00000035  00000-0  00000-0 0  9993
2 39533  53.8005 242.6968 0044010 195.2899 164.5448  2.00562716 43845
1 39533U 14008A   20075.69582467  .00000039  00000-0  00000-0 0  9999
2 39533  53.7998 242.6148 0044076 195.3577 164.4813  2.00562829 43885
1 39533U 14008A   20081.18016230 -.00000012  00000-0  00000+0 0  9991
2 39533  53.7979 242.3894 0044292 195.4990 164.3279  2.00563211 44522
1 39533U 14008A   20081.67873659 -.00000015  00000-0  00000-0 0  9995
2 39533  53.7977 242.3689 0044313 195.5119 164.3129  2.00563243 44002
1 39533U 14008A   20082.17731104 -.00000017  00000-0  00000-0 0  9991
2 39533  53.7976 242.3484 0044333 195.5253 164.2975  2.00563276 44010
1 39533U 14008A   20083.67303602 -.00000016  00000-0  00000+0 0  9993
2 39533  53.7972 242.2870 0044399 195.5700 164.2482  2.00563370 44572
1 39533U 14008A   20084.17161176 -.00000013  00000-0  00000-0 0  9995
2 39533  53.7971 242.2666 0044425 195.5888 164.2285  2.00563401 44050
1 39533U 14008A   20084.67018799 -.00000009  00000-0  00000-0 0  9997
2 39533  53.7969 242.2461 0044449 195.6083 164.2086  2.00563428 44063
1 39533U 14008A   20085.16876488 -.00000005  00000-0  00000-0 0  9995
2 39533  53.7967 242.2257 0044484 195.6252 164.1917  2.00563471 44072
1 39533U 14008A   20085.66734204  .00000000  00000-0  00000-0 0  9993
2 39533  53.7965 242.2052 0044501 195.6423 164.1750  2.00563501 44083
1 39533U 14008A   20086.66449794  .00000011  00000-0  00000+0 0  9992
2 39533  53.7961 242.1642 0044538 195.6719 164.1473  2.00563542 44639
1 39533U 14008A   20087.66165527  .00000021  00000-0  00000-0 0  9994
2 39533  53.7958 242.1233 0044569 195.6984 164.1239  2.00563580 44125
1 39533U 14008A   20089.15739218  .00000033  00000-0  00000-0 0  9997
2 39533  53.7952 242.0619 0044616 195.7486 164.0795  2.00563625 44684
1 39533U 14008A   20091.15170493  .00000037  00000-0  00000-0 0  9998
2 39533  53.7945 241.9800 0044715 195.8281 164.0059  2.00563703 44196
1 39533U 14008A   20092.14885768  .00000034  00000-0  00000+0 0  9992
2 39533  53.7941 241.9391 0044751 195.8673 163.9673  2.00563732 44745
1 39533U 14008A   20093.64458064  .00000022  00000-0  00000-0 0  9991
2 39533  53.7935 241.8776 0044794 195.9257 163.9057  2.00563768 44240
